{
	"type" : "FeatureCollection",
	"name" : "FIRESTATION",
	"features" : [
		{
			"type" : "Feature",
			"geometry" : {
				"type" : "Point",
				"coordinates" : [ 103.70528782557543, 1.34787822843497 ]
			},
			"properties" : {
				"OBJECTID" : 961,
				"POSTALCODE" : "648126",
				"DESCRIPTION" : "Tel: 6267 4700/1 Fax: 6261 5614",
				"ADDRESS" : "22 Jurong West st 26 Singapore 648126",
				"INC_CRC" : "AC52E6E4C862AB6E",
				"FMEL_UPD_D" : "20170922122013",
				"NAME" : "Jurong Fire Station"
			}
		},
		{
			"type" : "Feature",
			"geometry" : {
				"type" : "Point",
				"coordinates" : [ 103.84881635673574, 1.2920721554408667 ]
			},
			"properties" : {
				"OBJECTID" : 962,
				"POSTALCODE" : "179367",
				"DESCRIPTION" : "Tel: 6332 3000/9 Fax:6339 4589",
				"ADDRESS" : "62 Hill Street Singapore 179367",
				"INC_CRC" : "EE1C1416639EC1D8",
				"FMEL_UPD_D" : "20160808115533",
				"NAME" : "Central Fire Station"
			}
		},
		{
			"type" : "Feature",
			"geometry" : {
				"type" : "Point",
				"coordinates" : [ 103.80282953035554, 1.2884265831363906 ]
			},
			"properties" : {
				"OBJECTID" : 963,
				"POSTALCODE" : "149073",
				"DESCRIPTION" : "Tel: 6471 7481/2 Fax:6471 7487",
				"ADDRESS" : "3 Queensway Singapore 149073",
				"INC_CRC" : "26365A4D104BD767",
				"FMEL_UPD_D" : "20160808115533",
				"NAME" : "Alexandra Fire Station"
			}
		},
		{
			"type" : "Feature",
			"geometry" : {
				"type" : "Point",
				"coordinates" : [ 103.76166705838187, 1.3218826437612516 ]
			},
			"properties" : {
				"OBJECTID" : 964,
				"POSTALCODE" : "129577",
				"DESCRIPTION" : "Tel: 6341 1100/9 Fax:6776 4480",
				"ADDRESS" : "Commonwealth Ave West (off Clementi Service Road) Singapore 129577",
				"INC_CRC" : "97BFE10E128A3C02",
				"FMEL_UPD_D" : "20160808115533",
				"NAME" : "Clementi Fire Station"
			}
		},
		{
			"type" : "Feature",
			"geometry" : {
				"type" : "Point",
				"coordinates" : [ 103.83868857127423, 1.3479354982257956 ]
			},
			"properties" : {
				"OBJECTID" : 965,
				"POSTALCODE" : "574029",
				"DESCRIPTION" : "Tel: 6355 5037/2 Fax:6252 3294",
				"ADDRESS" : "1 Marymount Lane Singapore 574029",
				"INC_CRC" : "F1640B0207EBEB5A",
				"FMEL_UPD_D" : "20160808115533",
				"NAME" : "Bishan Fire Station"
			}
		},
		{
			"type" : "Feature",
			"geometry" : {
				"type" : "Point",
				"coordinates" : [ 103.70820457906258, 1.2719293022921945 ]
			},
			"properties" : {
				"OBJECTID" : 966,
				"POSTALCODE" : "627880",
				"DESCRIPTION" : "Tel: 6276 4712/3 Fax:6267 4717",
				"ADDRESS" : "70 Jurong Island Highway, Jurong Island Singapore 627880",
				"INC_CRC" : "00FF737D78A53AD1",
				"FMEL_UPD_D" : "20160808115533",
				"NAME" : "Jurong Island Fire Station"
			}
		},
		{
			"type" : "Feature",
			"geometry" : {
				"type" : "Point",
				"coordinates" : [ 103.67402255296084, 1.254251468495703 ]
			},
			"properties" : {
				"OBJECTID" : 967,
				"POSTALCODE" : "627642",
				"DESCRIPTION" : "Tel: 6515 8616/7 Fax:6515 8614",
				"ADDRESS" : "15 Banyan Road, Jurong Island Singapore 627642",
				"INC_CRC" : "9AD571D5023B02FC",
				"FMEL_UPD_D" : "20160808115533",
				"NAME" : "Banyan Fire Station"
			}
		},
		{
			"type" : "Feature",
			"geometry" : {
				"type" : "Point",
				"coordinates" : [ 103.92937531022268, 1.3580048783752003 ]
			},
			"properties" : {
				"OBJECTID" : 968,
				"POSTALCODE" : "528777",
				"DESCRIPTION" : "Tel: 6587 8344/5 Fax:6587 8346",
				"ADDRESS" : "1 Tampines Industrial Avenue 3 #01-01 Singapore 528777",
				"INC_CRC" : "48701B8308A1C56F",
				"FMEL_UPD_D" : "20160808115533",
				"NAME" : "Tampines Fire Station"
			}
		},
		{
			"type" : "Feature",
			"geometry" : {
				"type" : "Point",
				"coordinates" : [ 103.89310955999403, 1.3342211854252737 ]
			},
			"properties" : {
				"OBJECTID" : 969,
				"POSTALCODE" : "408827",
				"DESCRIPTION" : "Tel: 6848 1850/1 Fax:6848 1860",
				"ADDRESS" : "91 Ubi Avenue 4 Singapore 408827",
				"INC_CRC" : "C685ECC316283EF8",
				"FMEL_UPD_D" : "20160808115533",
				"NAME" : "Paya Lebar Fire Station"
			}
		},
		{
			"type" : "Feature",
			"geometry" : {
				"type" : "Point",
				"coordinates" : [ 103.9513342183908, 1.3348686342449176 ]
			},
			"properties" : {
				"OBJECTID" : 970,
				"POSTALCODE" : "486965",
				"DESCRIPTION" : "Tel: 6543 3900/6542 4988 Fax: 6545 2011",
				"ADDRESS" : "491 Upper Changi road Singapore 486965",
				"INC_CRC" : "5B7207B466352FC6",
				"FMEL_UPD_D" : "20160808115533",
				"NAME" : "Changi Fire Station"
			}
		},
		{
			"type" : "Feature",
			"geometry" : {
				"type" : "Point",
				"coordinates" : [ 103.83685701510944, 1.4441604631095346 ]
			},
			"properties" : {
				"OBJECTID" : 971,
				"POSTALCODE" : "768774",
				"DESCRIPTION" : "Tel: 6852 7995/8995 Fax: 6852 8895",
				"ADDRESS" : "533 Yishun Industrial Park A #01-01 Singapore 768774",
				"INC_CRC" : "C36450CA8043533A",
				"FMEL_UPD_D" : "20160808115533",
				"NAME" : "Yishun Fire Station"
			}
		},
		{
			"type" : "Feature",
			"geometry" : {
				"type" : "Point",
				"coordinates" : [ 103.84562732803228, 1.384987851312448 ]
			},
			"properties" : {
				"OBJECTID" : 972,
				"POSTALCODE" : "569783",
				"DESCRIPTION" : "Tel: 6484 3101/2 Fax: 6484 0277",
				"ADDRESS" : "2874 Ang Mo Kio Avenue 9 Singapore 569783",
				"INC_CRC" : "003AC1A4823ADB88",
				"FMEL_UPD_D" : "20160808115533",
				"NAME" : "Ang Mo Kio Fire Station"
			}
		},
		{
			"type" : "Feature",
			"geometry" : {
				"type" : "Point",
				"coordinates" : [ 103.8954453889991, 1.3802952981312238 ]
			},
			"properties" : {
				"OBJECTID" : 973,
				"POSTALCODE" : "545064",
				"DESCRIPTION" : "Tel: 6312 7002/3 Fax:6312 7012",
				"ADDRESS" : "50 Buangkok Drive Singapore 545064",
				"INC_CRC" : "8DAEF5324C137074",
				"FMEL_UPD_D" : "20160808115533",
				"NAME" : "Sengkang Fire Station"
			}
		},
		{
			"type" : "Feature",
			"geometry" : {
				"type" : "Point",
				"coordinates" : [ 103.66131836860569, 1.31966262072195 ]
			},
			"properties" : {
				"OBJECTID" : 974,
				"POSTALCODE" : "638483",
				"DESCRIPTION" : "Tel: 6865 4180/1 Fax: 6862 2344",
				"ADDRESS" : "7 Tuas Road Singapore 638483",
				"INC_CRC" : "804320E0A6107CA1",
				"FMEL_UPD_D" : "20160808115533",
				"NAME" : "Tuas Fire Station"
			}
		},
		{
			"type" : "Feature",
			"geometry" : {
				"type" : "Point",
				"coordinates" : [ 103.76236186844325, 1.4307879351736064 ]
			},
			"properties" : {
				"OBJECTID" : 975,
				"POSTALCODE" : "738782",
				"DESCRIPTION" : "Tel: 6884 1771/2 Fax: 6269 3626",
				"ADDRESS" : "1 Woodlands Industrial Park D Street 2 Singapore 738782",
				"INC_CRC" : "B693B63CDBBA3905",
				"FMEL_UPD_D" : "20160808115533",
				"NAME" : "Woodlands Fire Station"
			}
		},
		{
			"type" : "Feature",
			"geometry" : {
				"type" : "Point",
				"coordinates" : [ 103.75280204675705, 1.373340648536911 ]
			},
			"properties" : {
				"OBJECTID" : 976,
				"POSTALCODE" : "658072",
				"DESCRIPTION" : "Tel: 6314 6931/2 Fax:6314 6941",
				"ADDRESS" : "80 Bukit Batok Road Singapore 658072",
				"INC_CRC" : "B8B2CAD2AAC178F7",
				"FMEL_UPD_D" : "20160808115533",
				"NAME" : "Bukit Batok Fire Station"
			}
		},
		{
			"type" : "Feature",
			"geometry" : {
				"type" : "Point",
				"coordinates" : [ 103.76206168875933, 1.2925076140842864 ]
			},
			"properties" : {
				"OBJECTID" : 977,
				"POSTALCODE" : "126979",
				"DESCRIPTION" : "Tel: 67748130 Fax: 67748132",
				"ADDRESS" : "60 Westcoast Ferry Road Singapore 126979",
				"INC_CRC" : "6D6BFAEA13E9FFC1",
				"FMEL_UPD_D" : "20160808115533",
				"NAME" : "West Coast Marine Fire Station"
			}
		},
		{
			"type" : "Feature",
			"geometry" : {
				"type" : "Point",
				"coordinates" : [ 103.84899426417074, 1.2747355002541956 ]
			},
			"properties" : {
				"OBJECTID" : 978,
				"POSTALCODE" : "018962",
				"DESCRIPTION" : "Tel: 65436100 Fax: 6543 6101",
				"ADDRESS" : "70 Marina View Singapore 018962",
				"INC_CRC" : "B61B4E1FFE0BD3AD",
				"FMEL_UPD_D" : "20160808115533",
				"NAME" : "Marina Bay Fire Station"
			}
		},
		{
			"type" : "Feature",
			"geometry" : {
				"type" : "Point",
				"coordinates" : [ 103.62750864907403, 1.2889728067591366 ]
			},
			"properties" : {
				"OBJECTID" : 979,
				"POSTALCODE" : "637367",
				"DESCRIPTION" : "Tel: 66847104 Fax: 6684 7105",
				"ADDRESS" : "130 Tuas South Ave 3",
				"INC_CRC" : "9C34AA6975D7D033",
				"FMEL_UPD_D" : "20160808115533",
				"NAME" : "Tuas View Fire Station"
			}
		},
		{
			"type" : "Feature",
			"geometry" : {
				"type" : "Point",
				"coordinates" : [ 103.83871044109435, 1.2566390804674479 ]
			},
			"properties" : {
				"OBJECTID" : 980,
				"POSTALCODE" : "098002",
				"DESCRIPTION" : "Tel: 63764526 Fax: 63764527",
				"ADDRESS" : "19 Brani Way",
				"INC_CRC" : "7C96A4031BE710F1",
				"FMEL_UPD_D" : "20160808115533",
				"NAME" : "Brani Marine Fire Station"
			}
		},
		{
			"type" : "Feature",
			"geometry" : {
				"type" : "Point",
				"coordinates" : [ 103.8275116730176, 1.250707061968252 ]
			},
			"properties" : {
				"OBJECTID" : 981,
				"POSTALCODE" : "099957",
				"DESCRIPTION" : "Tel: 63551040 Fax: 63551049",
				"ADDRESS" : "37 Artillery Avenue Singapore 099957",
				"INC_CRC" : "57DDDB8B245F1BC7",
				"FMEL_UPD_D" : "20160808115533",
				"NAME" : "Sentosa Fire Station"
			}
		}
	]
}